{"type": "FeatureCollection", "features": [{"type": "Feature", "properties": {"norad_id": 2807, "name": "OPS 7218 (TRANSIT 16)", "group": "nnss", "lat": 13.730514333713328, "lon": -6.260219417792815, "alt_km": 1065.3397195601037, "timestamp": "2025-12-23T11:34:48.432827+00:00", "meta": {"OBJECT_NAME": "OPS 7218 (TRANSIT 16)", "OBJECT_ID": "1967-048A", "EPOCH": "2025-12-23T01:08:49.545888", "MEAN_MOTION": 13.50724389, "ECCENTRICITY": 0.0022161, "INCLINATION": 89.6731, "RA_OF_ASC_NODE": 353.6742, "ARG_OF_PERICENTER": 86.6117, "MEAN_ANOMALY": 334.9058, "EPHEMERIS_TYPE": 0, "CLASSIFICATION_TYPE": "U", "NORAD_CAT_ID": 2807, "ELEMENT_SET_NO": 999, "REV_AT_EPOCH": 88415, "BSTAR": 0.00014649, "MEAN_MOTION_DOT": 1.05e-06, "MEAN_MOTION_DDOT": 0}, "tle": {"line1": "1 02807U 67048A   25357.04779567  .00000105  00000+0  14649-3 0  9991", "line2": "2 02807  89.6731 353.6742 0022161  86.6117 334.9058 13.50724389884154"}}, "geometry": {"type": "Point", "coordinates": [-6.260219417792815, 13.730514333713328]}}, {"type": "Feature", "properties": {"norad_id": 2965, "name": "OPS 4947 (TRANSIT 17)", "group": "nnss", "lat": -4.025689227901269, "lon": -156.33111708363745, "alt_km": 1029.9361853517112, "timestamp": "2025-12-23T11:34:48.432849+00:00", "meta": {"OBJECT_NAME": "OPS 4947 (TRANSIT 17)", "OBJECT_ID": "1967-092A", "EPOCH": "2025-12-23T01:55:51.648096", "MEAN_MOTION": 13.53456258, "ECCENTRICITY": 0.004695, "INCLINATION": 89.2486, "RA_OF_ASC_NODE": 23.6466, "ARG_OF_PERICENTER": 203.7716, "MEAN_ANOMALY": 182.5317, "EPHEMERIS_TYPE": 0, "CLASSIFICATION_TYPE": "U", "NORAD_CAT_ID": 2965, "ELEMENT_SET_NO": 999, "REV_AT_EPOCH": 87237, "BSTAR": 0.00019192, "MEAN_MOTION_DOT": 1.41e-06, "MEAN_MOTION_DDOT": 0}, "tle": {"line1": "1 02965U 67092A   25357.08045889  .00000141  00000+0  19192-3 0  9990", "line2": "2 02965  89.2486  23.6466 0046950 203.7716 182.5317 13.53456258872374"}}, "geometry": {"type": "Point", "coordinates": [-156.33111708363745, -4.025689227901269]}}, {"type": "Feature", "properties": {"norad_id": 3133, "name": "OPS 7034 (TRANSIT 18)", "group": "nnss", "lat": -81.06800063002582, "lon": 93.48807044277792, "alt_km": 1103.8666849221945, "timestamp": "2025-12-23T11:34:48.432860+00:00", "meta": {"OBJECT_NAME": "OPS 7034 (TRANSIT 18)", "OBJECT_ID": "1968-012A", "EPOCH": "2025-12-23T01:28:14.489184", "MEAN_MOTION": 13.51568073, "ECCENTRICITY": 0.0074819, "INCLINATION": 90.0285, "RA_OF_ASC_NODE": 273.6683, "ARG_OF_PERICENTER": 139.4434, "MEAN_ANOMALY": 232.5661, "EPHEMERIS_TYPE": 0, "CLASSIFICATION_TYPE": "U", "NORAD_CAT_ID": 3133, "ELEMENT_SET_NO": 999, "REV_AT_EPOCH": 57058, "BSTAR": 0.00021252, "MEAN_MOTION_DOT": 1.51e-06, "MEAN_MOTION_DDOT": 0}, "tle": {"line1": "1 03133U 68012A   25357.06127881  .00000151  00000+0  21252-3 0  9993", "line2": "2 03133  90.0285 273.6683 0074819 139.4434 232.5661 13.51568073570587"}}, "geometry": {"type": "Point", "coordinates": [93.48807044277792, -81.06800063002582]}}, {"type": "Feature", "properties": {"norad_id": 4507, "name": "NNSS 19 (TRANSIT 19)", "group": "nnss", "lat": -40.91528952044635, "lon": 54.536836920817876, "alt_km": 977.5929309126641, "timestamp": "2025-12-23T11:34:48.432870+00:00", "meta": {"OBJECT_NAME": "NNSS 19 (TRANSIT 19)", "OBJECT_ID": "1970-067A", "EPOCH": "2025-12-23T03:21:58.921056", "MEAN_MOTION": 13.51317203, "ECCENTRICITY": 0.0170224, "INCLINATION": 90.005, "RA_OF_ASC_NODE": 234.541, "ARG_OF_PERICENTER": 262.936, "MEAN_ANOMALY": 95.2407, "EPHEMERIS_TYPE": 0, "CLASSIFICATION_TYPE": "U", "NORAD_CAT_ID": 4507, "ELEMENT_SET_NO": 999, "REV_AT_EPOCH": 72362, "BSTAR": 0.00015716, "MEAN_MOTION_DOT": 1.19e-06, "MEAN_MOTION_DDOT": 0}, "tle": {"line1": "1 04507U 70067A   25357.14026529  .00000119  00000+0  15716-3 0  9990", "line2": "2 04507  90.0050 234.5410 0170224 262.9360  95.2407 13.51317203723628"}}, "geometry": {"type": "Point", "coordinates": [54.536836920817876, -40.91528952044635]}}, {"type": "Feature", "properties": {"norad_id": 6909, "name": "NNSS 20 (TRANSIT 20)", "group": "nnss", "lat": -9.780540672980026, "lon": -105.13155757335902, "alt_km": 933.1264572809669, "timestamp": "2025-12-23T11:34:48.432881+00:00", "meta": {"OBJECT_NAME": "NNSS 20 (TRANSIT 20)", "OBJECT_ID": "1973-081A", "EPOCH": "2025-12-22T23:22:10.447392", "MEAN_MOTION": 13.71439591, "ECCENTRICITY": 0.0156275, "INCLINATION": 89.8562, "RA_OF_ASC_NODE": 254.9009, "ARG_OF_PERICENTER": 47.9946, "MEAN_ANOMALY": 313.4402, "EPHEMERIS_TYPE": 0, "CLASSIFICATION_TYPE": "U", "NORAD_CAT_ID": 6909, "ELEMENT_SET_NO": 999, "REV_AT_EPOCH": 80501, "BSTAR": 0.00028592, "MEAN_MOTION_DOT": 2.92e-06, "MEAN_MOTION_DDOT": 0}, "tle": {"line1": "1 06909U 73081A   25356.97373203  .00000292  00000+0  28592-3 0  9999", "line2": "2 06909  89.8562 254.9009 0156275  47.9946 313.4402 13.71439591805012"}}, "geometry": {"type": "Point", "coordinates": [-105.13155757335902, -9.780540672980026]}}, {"type": "Feature", "properties": {"norad_id": 10457, "name": "TRANSAT", "group": "nnss", "lat": 44.54026588668972, "lon": -102.13039722157276, "alt_km": 1054.3735840593035, "timestamp": "2025-12-23T11:34:48.432891+00:00", "meta": {"OBJECT_NAME": "TRANSAT", "OBJECT_ID": "1977-106A", "EPOCH": "2025-12-23T04:08:12.748992", "MEAN_MOTION": 13.4894515, "ECCENTRICITY": 0.0026356, "INCLINATION": 89.6477, "RA_OF_ASC_NODE": 78.2275, "ARG_OF_PERICENTER": 159.8262, "MEAN_ANOMALY": 270.4917, "EPHEMERIS_TYPE": 0, "CLASSIFICATION_TYPE": "U", "NORAD_CAT_ID": 10457, "ELEMENT_SET_NO": 999, "REV_AT_EPOCH": 36884, "BSTAR": 0.00013511, "MEAN_MOTION_DOT": 9.5e-07, "MEAN_MOTION_DDOT": 0}, "tle": {"line1": "1 10457U 77106A   25357.17236978  .00000095  00000+0  13511-3 0  9990", "line2": "2 10457  89.6477  78.2275 0026356 159.8262 270.4917 13.48945150368845"}}, "geometry": {"type": "Point", "coordinates": [-102.13039722157276, 44.54026588668972]}}, {"type": "Feature", "properties": {"norad_id": 12458, "name": "NOVA 1", "group": "nnss", "lat": 53.99576189248387, "lon": -88.96967306577518, "alt_km": 1159.2697904057268, "timestamp": "2025-12-23T11:34:48.432901+00:00", "meta": {"OBJECT_NAME": "NOVA 1", "OBJECT_ID": "1981-044A", "EPOCH": "2025-12-22T13:13:40.325952", "MEAN_MOTION": 13.2327954, "ECCENTRICITY": 0.00158143, "INCLINATION": 89.8526, "RA_OF_ASC_NODE": 91.2465, "ARG_OF_PERICENTER": 79.8958, "MEAN_ANOMALY": 291.7383, "EPHEMERIS_TYPE": 0, "CLASSIFICATION_TYPE": "U", "NORAD_CAT_ID": 12458, "ELEMENT_SET_NO": 999, "REV_AT_EPOCH": 15316, "BSTAR": 0.0001659475, "MEAN_MOTION_DOT": 7.9e-07, "MEAN_MOTION_DDOT": 0}, "tle": {"line1": "1 12458U 81044A   25356.55116118  .00000079  00000+0  16595-3 0  9990", "line2": "2 12458  89.8526  91.2465 0015814  79.8958 291.7383 13.23279540153167"}}, "geometry": {"type": "Point", "coordinates": [-88.96967306577518, 53.99576189248387]}}, {"type": "Feature", "properties": {"norad_id": 15362, "name": "NOVA 3", "group": "nnss", "lat": -10.3998741626203, "lon": 80.68344000091349, "alt_km": 1162.2978393172107, "timestamp": "2025-12-23T11:34:48.432910+00:00", "meta": {"OBJECT_NAME": "NOVA 3", "OBJECT_ID": "1984-110A", "EPOCH": "2025-12-22T19:54:34.624224", "MEAN_MOTION": 13.23045769, "ECCENTRICITY": 0.00299327, "INCLINATION": 90.1219, "RA_OF_ASC_NODE": 80.6534, "ARG_OF_PERICENTER": 302.8865, "MEAN_ANOMALY": 178.452, "EPHEMERIS_TYPE": 0, "CLASSIFICATION_TYPE": "U", "NORAD_CAT_ID": 15362, "ELEMENT_SET_NO": 999, "REV_AT_EPOCH": 98832, "BSTAR": 0.00022585614, "MEAN_MOTION_DOT": 1.03e-06, "MEAN_MOTION_DDOT": 0}, "tle": {"line1": "1 15362U 84110A   25356.82956741  .00000103  00000+0  22586-3 0  9993", "line2": "2 15362  90.1219  80.6534 0029932 302.8865 178.4520 13.23045769988321"}}, "geometry": {"type": "Point", "coordinates": [80.68344000091349, -10.3998741626203]}}, {"type": "Feature", "properties": {"norad_id": 15935, "name": "OSCAR 30", "group": "nnss", "lat": -34.36097195700164, "lon": -80.0903338247117, "alt_km": 1249.3686066069477, "timestamp": "2025-12-23T11:34:48.432920+00:00", "meta": {"OBJECT_NAME": "OSCAR 30", "OBJECT_ID": "1985-066A", "EPOCH": "2025-12-22T20:45:25.028064", "MEAN_MOTION": 13.36079881, "ECCENTRICITY": 0.01690263, "INCLINATION": 90.1653, "RA_OF_ASC_NODE": 100.0127, "ARG_OF_PERICENTER": 55.6175, "MEAN_ANOMALY": 68.9897, "EPHEMERIS_TYPE": 0, "CLASSIFICATION_TYPE": "U", "NORAD_CAT_ID": 15935, "ELEMENT_SET_NO": 999, "REV_AT_EPOCH": 96588, "BSTAR": 0.00016448465, "MEAN_MOTION_DOT": 1.01e-06, "MEAN_MOTION_DDOT": 0}, "tle": {"line1": "1 15935U 85066A   25356.86487301  .00000101  00000+0  16448-3 0  9993", "line2": "2 15935  90.1653 100.0127 0169026  55.6175  68.9897 13.36079881965882"}}, "geometry": {"type": "Point", "coordinates": [-80.0903338247117, -34.36097195700164]}}, {"type": "Feature", "properties": {"norad_id": 15936, "name": "OSCAR 24", "group": "nnss", "lat": -77.90046739830458, "lon": 93.33142005512224, "alt_km": 1226.1135201299348, "timestamp": "2025-12-23T11:34:48.432930+00:00", "meta": {"OBJECT_NAME": "OSCAR 24", "OBJECT_ID": "1985-066B", "EPOCH": "2025-12-22T17:00:50.070240", "MEAN_MOTION": 13.35937122, "ECCENTRICITY": 0.01701816, "INCLINATION": 90.1791, "RA_OF_ASC_NODE": 92.4818, "ARG_OF_PERICENTER": 62.4983, "MEAN_ANOMALY": 102.6279, "EPHEMERIS_TYPE": 0, "CLASSIFICATION_TYPE": "U", "NORAD_CAT_ID": 15936, "ELEMENT_SET_NO": 999, "REV_AT_EPOCH": 96776, "BSTAR": 0.00014928667, "MEAN_MOTION_DOT": 9.3e-07, "MEAN_MOTION_DDOT": 0}, "tle": {"line1": "1 15936U 85066B   25356.70891285  .00000093  00000+0  14929-3 0  9999", "line2": "2 15936  90.1791  92.4818 0170181  62.4983 102.6279 13.35937122967763"}}, "geometry": {"type": "Point", "coordinates": [93.33142005512224, -77.90046739830458]}}]}